CYGFM07                 
1 41890U 16078G   23117.14117719  .00006807  00000+0  30611-3 0  9993
2 41890  34.9520  31.6708 0011263  34.0952 326.0483 15.20373608352683
FENGYUN 3D              
1 43010U 17072A   23117.09093965  .00000079  00000+0  59109-4 0  9993
2 43010  98.8574  65.7359 0002641  92.6027 267.5454 14.19187043282255
NOAA 20                 
1 43013U 17073A   23117.16211239  .00000145  00000+0  89604-4 0  9998
2 43013  98.7496  56.2977 0000717  95.6616 264.4641 14.19542777281735
GOES 17                 
1 43226U 18022A   23117.21631196 -.00000092  00000+0  00000+0 0  9993
2 43226   0.0097  76.0603 0001722 341.7283 130.2884  1.00272237 18938
FENGYUN 2H              
1 43491U 18050A   23116.85336326 -.00000130  00000+0  00000+0 0  9997
2 43491   1.9462  91.7832 0002309  69.6047  79.5883  1.00274253 17935
FENGYUN 3E              
1 49008U 21062A   23117.05642306  .00000344  00000+0  18329-3 0  9998
2 49008  98.7220 119.2268 0002377 127.4883 232.6511 14.19677712 93818
GOES 18                 
1 51850U 22021A   23117.01802897  .00000095  00000+0  00000+0 0  9997
2 51850   0.0040  70.2717 0000339 280.1567  93.8065  1.00272103  4307
NOAA 21 (JPSS-2)        
1 54234U 22150A   23117.10770731  .00000172  00000+0  10213-3 0  9997
2 54234  98.7134  55.8677 0000940  99.7568 260.3714 14.19535715 23804
METEOSAT-12 (MTG-I1)    
1 54743U 22170C   23116.74869619 -.00000035  00000+0  00000+0 0  9995
2 54743   0.6994 305.9922 0002975 103.0230  71.3736  1.00271051  1471
METEOR-M2 2             
1 44387U 19038A   23117.15171342  .00000459  00000+0  22036-3 0  9998
2 44387  98.7712  81.1720 0002471  90.5483 269.5989 14.23777053198043
