[{"OBJECT_NAME":"CYGFM07","OBJECT_ID":"2016-078G","EPOCH":"2023-04-27T03:23:17.709216","MEAN_MOTION":15.20373608,"ECCENTRICITY":0.0011263,"INCLINATION":34.952,"RA_OF_ASC_NODE":31.6708,"ARG_OF_PERICENTER":34.0952,"MEAN_ANOMALY":326.0483,"EPHEMERIS_TYPE":0,"CLASSIFICATION_TYPE":"U","NORAD_CAT_ID":41890,"ELEMENT_SET_NO":999,"REV_AT_EPOCH":35268,"BSTAR":0.00030611,"MEAN_MOTION_DOT":6.807e-5,"MEAN_MOTION_DDOT":0},{"OBJECT_NAME":"FENGYUN 3D","OBJECT_ID":"2017-072A","EPOCH":"2023-04-27T02:10:57.185760","MEAN_MOTION":14.19187043,"ECCENTRICITY":0.0002641,"INCLINATION":98.8574,"RA_OF_ASC_NODE":65.7359,"ARG_OF_PERICENTER":92.6027,"MEAN_ANOMALY":267.5454,"EPHEMERIS_TYPE":0,"CLASSIFICATION_TYPE":"U","NORAD_CAT_ID":43010,"ELEMENT_SET_NO":999,"REV_AT_EPOCH":28225,"BSTAR":5.9109e-5,"MEAN_MOTION_DOT":7.9e-7,"MEAN_MOTION_DDOT":0},{"OBJECT_NAME":"NOAA 20","OBJECT_ID":"2017-073A","EPOCH":"2023-04-27T03:53:26.510496","MEAN_MOTION":14.19542777,"ECCENTRICITY":7.17e-5,"INCLINATION":98.7496,"RA_OF_ASC_NODE":56.2977,"ARG_OF_PERICENTER":95.6616,"MEAN_ANOMALY":264.4641,"EPHEMERIS_TYPE":0,"CLASSIFICATION_TYPE":"U","NORAD_CAT_ID":43013,"ELEMENT_SET_NO":999,"REV_AT_EPOCH":28173,"BSTAR":8.9604e-5,"MEAN_MOTION_DOT":1.45e-6,"MEAN_MOTION_DDOT":0},{"OBJECT_NAME":"GOES 17","OBJECT_ID":"2018-022A","EPOCH":"2023-04-27T05:11:29.353344","MEAN_MOTION":1.00272237,"ECCENTRICITY":0.0001722,"INCLINATION":0.0097,"RA_OF_ASC_NODE":76.0603,"ARG_OF_PERICENTER":341.7283,"MEAN_ANOMALY":130.2884,"EPHEMERIS_TYPE":0,"CLASSIFICATION_TYPE":"U","NORAD_CAT_ID":43226,"ELEMENT_SET_NO":999,"REV_AT_EPOCH":1893,"BSTAR":0,"MEAN_MOTION_DOT":-9.2e-7,"MEAN_MOTION_DDOT":0},{"OBJECT_NAME":"FENGYUN 2H","OBJECT_ID":"2018-050A","EPOCH":"2023-04-26T20:28:50.585664","MEAN_MOTION":1.00274253,"ECCENTRICITY":0.0002309,"INCLINATION":1.9462,"RA_OF_ASC_NODE":91.7832,"ARG_OF_PERICENTER":69.6047,"MEAN_ANOMALY":79.5883,"EPHEMERIS_TYPE":0,"CLASSIFICATION_TYPE":"U","NORAD_CAT_ID":43491,"ELEMENT_SET_NO":999,"REV_AT_EPOCH":1793,"BSTAR":0,"MEAN_MOTION_DOT":-1.3e-6,"MEAN_MOTION_DDOT":0},{"OBJECT_NAME":"METEOR-M2 2","OBJECT_ID":"2019-038A","EPOCH":"2023-04-27T03:38:28.039488","MEAN_MOTION":14.23777053,"ECCENTRICITY":0.0002471,"INCLINATION":98.7712,"RA_OF_ASC_NODE":81.172,"ARG_OF_PERICENTER":90.5483,"MEAN_ANOMALY":269.5989,"EPHEMERIS_TYPE":0,"CLASSIFICATION_TYPE":"U","NORAD_CAT_ID":44387,"ELEMENT_SET_NO":999,"REV_AT_EPOCH":19804,"BSTAR":0.00022036,"MEAN_MOTION_DOT":4.59e-6,"MEAN_MOTION_DDOT":0},{"OBJECT_NAME":"FENGYUN 3E","OBJECT_ID":"2021-062A","EPOCH":"2023-04-27T01:21:14.952384","MEAN_MOTION":14.19677712,"ECCENTRICITY":0.0002377,"INCLINATION":98.722,"RA_OF_ASC_NODE":119.2268,"ARG_OF_PERICENTER":127.4883,"MEAN_ANOMALY":232.6511,"EPHEMERIS_TYPE":0,"CLASSIFICATION_TYPE":"U","NORAD_CAT_ID":49008,"ELEMENT_SET_NO":999,"REV_AT_EPOCH":9381,"BSTAR":0.00018329,"MEAN_MOTION_DOT":3.44e-6,"MEAN_MOTION_DDOT":0},{"OBJECT_NAME":"GOES 18","OBJECT_ID":"2022-021A","EPOCH":"2023-04-27T00:25:57.703008","MEAN_MOTION":1.00272103,"ECCENTRICITY":3.39e-5,"INCLINATION":0.004,"RA_OF_ASC_NODE":70.2717,"ARG_OF_PERICENTER":280.1567,"MEAN_ANOMALY":93.8065,"EPHEMERIS_TYPE":0,"CLASSIFICATION_TYPE":"U","NORAD_CAT_ID":51850,"ELEMENT_SET_NO":999,"REV_AT_EPOCH":430,"BSTAR":0,"MEAN_MOTION_DOT":9.5e-7,"MEAN_MOTION_DDOT":0},{"OBJECT_NAME":"NOAA 21 (JPSS-2)","OBJECT_ID":"2022-150A","EPOCH":"2023-04-27T02:35:05.911584","MEAN_MOTION":14.19535715,"ECCENTRICITY":9.4e-5,"INCLINATION":98.7134,"RA_OF_ASC_NODE":55.8677,"ARG_OF_PERICENTER":99.7568,"MEAN_ANOMALY":260.3714,"EPHEMERIS_TYPE":0,"CLASSIFICATION_TYPE":"U","NORAD_CAT_ID":54234,"ELEMENT_SET_NO":999,"REV_AT_EPOCH":2380,"BSTAR":0.00010213,"MEAN_MOTION_DOT":1.72e-6,"MEAN_MOTION_DDOT":0},{"OBJECT_NAME":"METEOSAT-12","OBJECT_ID":"2022-170C","EPOCH":"2023-04-26T17:58:07.350816","MEAN_MOTION":1.00271051,"ECCENTRICITY":0.0002975,"INCLINATION":0.6994,"RA_OF_ASC_NODE":305.9922,"ARG_OF_PERICENTER":103.023,"MEAN_ANOMALY":71.3736,"EPHEMERIS_TYPE":0,"CLASSIFICATION_TYPE":"U","NORAD_CAT_ID":54743,"ELEMENT_SET_NO":999,"REV_AT_EPOCH":147,"BSTAR":0,"MEAN_MOTION_DOT":-3.5e-7,"MEAN_MOTION_DDOT":0}]
